[{"OBJECT_NAME":"STARLINK-3398","OBJECT_ID":"2022-005S","EPOCH":"2025-11-18T16:53:21.620544","MEAN_MOTION":15.08886085,"ECCENTRICITY":0.00016282,"INCLINATION":53.2162,"RA_OF_ASC_NODE":67.3651,"ARG_OF_PERICENTER":87.6138,"MEAN_ANOMALY":272.504,"EPHEMERIS_TYPE":0,"CLASSIFICATION_TYPE":"U","NORAD_CAT_ID":51120,"ELEMENT_SET_NO":999,"REV_AT_EPOCH":21212,"BSTAR":-0.00060564278,"MEAN_MOTION_DOT":-9.926e-5,"MEAN_MOTION_DDOT":0},{"OBJECT_NAME":"STARLINK-3399","OBJECT_ID":"2022-005T","EPOCH":"2025-11-18T23:36:06.122880","MEAN_MOTION":15.08836923,"ECCENTRICITY":0.00014431,"INCLINATION":53.2189,"RA_OF_ASC_NODE":66.1092,"ARG_OF_PERICENTER":111.1087,"MEAN_ANOMALY":249.0059,"EPHEMERIS_TYPE":0,"CLASSIFICATION_TYPE":"U","NORAD_CAT_ID":51121,"ELEMENT_SET_NO":999,"REV_AT_EPOCH":21216,"BSTAR":6.0139218e-5,"MEAN_MOTION_DOT":6.69e-6,"MEAN_MOTION_DDOT":0},{"OBJECT_NAME":"STARLINK-3392","OBJECT_ID":"2022-005V","EPOCH":"2025-11-18T16:46:39.729216","MEAN_MOTION":15.08875176,"ECCENTRICITY":9.056e-5,"INCLINATION":53.2156,"RA_OF_ASC_NODE":67.3753,"ARG_OF_PERICENTER":78.8877,"MEAN_ANOMALY":281.2217,"EPHEMERIS_TYPE":0,"CLASSIFICATION_TYPE":"U","NORAD_CAT_ID":51123,"ELEMENT_SET_NO":999,"REV_AT_EPOCH":21212,"BSTAR":-0.0010094978,"MEAN_MOTION_DOT":-0.00016333,"MEAN_MOTION_DDOT":0},{"OBJECT_NAME":"STARLINK-3389","OBJECT_ID":"2022-005W","EPOCH":"2025-11-18T17:48:57.254112","MEAN_MOTION":15.08832671,"ECCENTRICITY":0.00014425,"INCLINATION":53.2185,"RA_OF_ASC_NODE":77.1822,"ARG_OF_PERICENTER":94.2212,"MEAN_ANOMALY":265.8945,"EPHEMERIS_TYPE":0,"CLASSIFICATION_TYPE":"U","NORAD_CAT_ID":51124,"ELEMENT_SET_NO":999,"REV_AT_EPOCH":21199,"BSTAR":-1.8521375e-5,"MEAN_MOTION_DOT":-5.83e-6,"MEAN_MOTION_DDOT":0},{"OBJECT_NAME":"STARLINK-3387","OBJECT_ID":"2022-005X","EPOCH":"2025-11-18T17:34:26.203872","MEAN_MOTION":15.08838572,"ECCENTRICITY":0.00014216,"INCLINATION":53.2165,"RA_OF_ASC_NODE":77.2345,"ARG_OF_PERICENTER":97.3581,"MEAN_ANOMALY":262.7573,"EPHEMERIS_TYPE":0,"CLASSIFICATION_TYPE":"U","NORAD_CAT_ID":51125,"ELEMENT_SET_NO":999,"REV_AT_EPOCH":21197,"BSTAR":5.136707e-6,"MEAN_MOTION_DOT":-2.06e-6,"MEAN_MOTION_DDOT":0},{"OBJECT_NAME":"STARLINK-3386","OBJECT_ID":"2022-005Y","EPOCH":"2025-11-18T17:45:02.272896","MEAN_MOTION":15.08834324,"ECCENTRICITY":0.0001505,"INCLINATION":53.2177,"RA_OF_ASC_NODE":77.204,"ARG_OF_PERICENTER":92.8831,"MEAN_ANOMALY":267.2334,"EPHEMERIS_TYPE":0,"CLASSIFICATION_TYPE":"U","NORAD_CAT_ID":51126,"ELEMENT_SET_NO":999,"REV_AT_EPOCH":21199,"BSTAR":-4.0392158e-5,"MEAN_MOTION_DOT":-9.31e-6,"MEAN_MOTION_DDOT":0},{"OBJECT_NAME":"STARLINK-3370","OBJECT_ID":"2022-005Z","EPOCH":"2025-11-18T17:39:44.467776","MEAN_MOTION":15.08830196,"ECCENTRICITY":0.00013852,"INCLINATION":53.2168,"RA_OF_ASC_NODE":77.2203,"ARG_OF_PERICENTER":82.9647,"MEAN_ANOMALY":277.1502,"EPHEMERIS_TYPE":0,"CLASSIFICATION_TYPE":"U","NORAD_CAT_ID":51127,"ELEMENT_SET_NO":999,"REV_AT_EPOCH":21198,"BSTAR":-8.2562217e-5,"MEAN_MOTION_DOT":-1.601e-5,"MEAN_MOTION_DDOT":0},{"OBJECT_NAME":"STARLINK-3400","OBJECT_ID":"2022-005AA","EPOCH":"2025-11-18T17:11:51.662688","MEAN_MOTION":15.08836645,"ECCENTRICITY":0.00015638,"INCLINATION":53.2152,"RA_OF_ASC_NODE":77.2963,"ARG_OF_PERICENTER":90.0296,"MEAN_ANOMALY":270.0876,"EPHEMERIS_TYPE":0,"CLASSIFICATION_TYPE":"U","NORAD_CAT_ID":51128,"ELEMENT_SET_NO":999,"REV_AT_EPOCH":21197,"BSTAR":5.682628e-6,"MEAN_MOTION_DOT":-1.98e-6,"MEAN_MOTION_DDOT":0},{"OBJECT_NAME":"STARLINK-3396","OBJECT_ID":"2022-005AB","EPOCH":"2025-11-19T00:11:52.321344","MEAN_MOTION":15.08836306,"ECCENTRICITY":0.00013932,"INCLINATION":53.2171,"RA_OF_ASC_NODE":75.9887,"ARG_OF_PERICENTER":85.6934,"MEAN_ANOMALY":274.4218,"EPHEMERIS_TYPE":0,"CLASSIFICATION_TYPE":"U","NORAD_CAT_ID":51129,"ELEMENT_SET_NO":999,"REV_AT_EPOCH":21202,"BSTAR":-2.6734091e-5,"MEAN_MOTION_DOT":-7.13e-6,"MEAN_MOTION_DDOT":0},{"OBJECT_NAME":"STARLINK-3395","OBJECT_ID":"2022-005AC","EPOCH":"2025-11-19T01:24:41.238432","MEAN_MOTION":15.08834404,"ECCENTRICITY":9.546e-5,"INCLINATION":53.2162,"RA_OF_ASC_NODE":75.7589,"ARG_OF_PERICENTER":79.6376,"MEAN_ANOMALY":280.4724,"EPHEMERIS_TYPE":0,"CLASSIFICATION_TYPE":"U","NORAD_CAT_ID":51130,"ELEMENT_SET_NO":999,"REV_AT_EPOCH":21202,"BSTAR":0.00020717483,"MEAN_MOTION_DOT":3.01e-5,"MEAN_MOTION_DDOT":0},{"OBJECT_NAME":"STARLINK-3388","OBJECT_ID":"2022-005AD","EPOCH":"2025-11-19T01:14:05.866656","MEAN_MOTION":15.08846211,"ECCENTRICITY":7.01e-5,"INCLINATION":53.218,"RA_OF_ASC_NODE":75.7939,"ARG_OF_PERICENTER":87.4253,"MEAN_ANOMALY":272.6819,"EPHEMERIS_TYPE":0,"CLASSIFICATION_TYPE":"U","NORAD_CAT_ID":51131,"ELEMENT_SET_NO":999,"REV_AT_EPOCH":21202,"BSTAR":0.00014268189,"MEAN_MOTION_DOT":1.984e-5,"MEAN_MOTION_DDOT":0},{"OBJECT_NAME":"STARLINK-3393","OBJECT_ID":"2022-005AE","EPOCH":"2025-11-19T01:19:23.250144","MEAN_MOTION":15.08835069,"ECCENTRICITY":0.00013899,"INCLINATION":53.2161,"RA_OF_ASC_NODE":75.7775,"ARG_OF_PERICENTER":78.1698,"MEAN_ANOMALY":281.945,"EPHEMERIS_TYPE":0,"CLASSIFICATION_TYPE":"U","NORAD_CAT_ID":51132,"ELEMENT_SET_NO":999,"REV_AT_EPOCH":21202,"BSTAR":-6.887666e-6,"MEAN_MOTION_DOT":-3.98e-6,"MEAN_MOTION_DDOT":0},{"OBJECT_NAME":"STARLINK-3356","OBJECT_ID":"2022-005AF","EPOCH":"2025-11-19T01:03:29.409696","MEAN_MOTION":15.08835611,"ECCENTRICITY":0.00012055,"INCLINATION":53.2169,"RA_OF_ASC_NODE":75.828,"ARG_OF_PERICENTER":88.5306,"MEAN_ANOMALY":271.5824,"EPHEMERIS_TYPE":0,"CLASSIFICATION_TYPE":"U","NORAD_CAT_ID":51133,"ELEMENT_SET_NO":999,"REV_AT_EPOCH":21202,"BSTAR":5.4170239e-5,"MEAN_MOTION_DOT":5.74e-6,"MEAN_MOTION_DDOT":0},{"OBJECT_NAME":"STARLINK-3363","OBJECT_ID":"2022-005AH","EPOCH":"2025-11-18T18:22:06.579552","MEAN_MOTION":15.08832921,"ECCENTRICITY":0.00013788,"INCLINATION":53.2173,"RA_OF_ASC_NODE":76.9753,"ARG_OF_PERICENTER":76.6248,"MEAN_ANOMALY":283.4898,"EPHEMERIS_TYPE":0,"CLASSIFICATION_TYPE":"U","NORAD_CAT_ID":51135,"ELEMENT_SET_NO":999,"REV_AT_EPOCH":21198,"BSTAR":7.996784e-6,"MEAN_MOTION_DOT":-1.61e-6,"MEAN_MOTION_DDOT":0},{"OBJECT_NAME":"STARLINK-3253","OBJECT_ID":"2022-005AJ","EPOCH":"2025-11-19T00:31:39.502272","MEAN_MOTION":15.08841417,"ECCENTRICITY":0.00013488,"INCLINATION":53.218,"RA_OF_ASC_NODE":75.7229,"ARG_OF_PERICENTER":91.8664,"MEAN_ANOMALY":268.2483,"EPHEMERIS_TYPE":0,"CLASSIFICATION_TYPE":"U","NORAD_CAT_ID":51136,"ELEMENT_SET_NO":999,"REV_AT_EPOCH":21202,"BSTAR":-5.1541247e-5,"MEAN_MOTION_DOT":-1.108e-5,"MEAN_MOTION_DDOT":0},{"OBJECT_NAME":"STARLINK-3180","OBJECT_ID":"2022-005AK","EPOCH":"2025-11-19T00:42:18.078624","MEAN_MOTION":15.08840775,"ECCENTRICITY":0.00012358,"INCLINATION":53.2165,"RA_OF_ASC_NODE":75.8937,"ARG_OF_PERICENTER":89.294,"MEAN_ANOMALY":270.8194,"EPHEMERIS_TYPE":0,"CLASSIFICATION_TYPE":"U","NORAD_CAT_ID":51137,"ELEMENT_SET_NO":999,"REV_AT_EPOCH":21203,"BSTAR":1.6698189e-5,"MEAN_MOTION_DOT":-2.2e-7,"MEAN_MOTION_DDOT":0}]
