STARLINK-3398           
1 51120U 22005S   25322.70372246 -.00009926  00000+0 -60564-3 0  9994
2 51120  53.2162  67.3651 0001628  87.6138 272.5040 15.08886085212125
STARLINK-3399           
1 51121U 22005T   25322.98340420  .00000669  00000+0  60139-4 0  9996
2 51121  53.2189  66.1092 0001443 111.1087 249.0059 15.08836923212161
STARLINK-3392           
1 51123U 22005V   25322.69907094 -.00016333  00000+0 -10095-2 0  9993
2 51123  53.2156  67.3753 0000905  78.8877 281.2217 15.08875176212125
STARLINK-3389           
1 51124U 22005W   25322.74232933 -.00000583  00000+0 -18521-4 0  9997
2 51124  53.2185  77.1822 0001442  94.2212 265.8945 15.08832671211999
STARLINK-3387           
1 51125U 22005X   25322.73224773 -.00000206  00000+0  51367-5 0  9997
2 51125  53.2165  77.2345 0001421  97.3581 262.7573 15.08838572211976
STARLINK-3386           
1 51126U 22005Y   25322.73960964 -.00000931  00000+0 -40392-4 0  9998
2 51126  53.2177  77.2040 0001505  92.8831 267.2334 15.08834324211991
STARLINK-3370           
1 51127U 22005Z   25322.73593134 -.00001601  00000+0 -82562-4 0  9990
2 51127  53.2168  77.2203 0001385  82.9647 277.1502 15.08830196211983
STARLINK-3400           
1 51128U 22005AA  25322.71657017 -.00000198  00000+0  56826-5 0  9994
2 51128  53.2152  77.2963 0001563  90.0296 270.0876 15.08836645211978
STARLINK-3396           
1 51129U 22005AB  25323.00824446 -.00000713  00000+0 -26734-4 0  9998
2 51129  53.2171  75.9887 0001393  85.6934 274.4218 15.08836306212029
STARLINK-3395           
1 51130U 22005AC  25323.05881063  .00003010  00000+0  20717-3 0  9998
2 51130  53.2162  75.7589 0000954  79.6376 280.4724 15.08834404212029
STARLINK-3388           
1 51131U 22005AD  25323.05145679  .00001984  00000+0  14268-3 0  9997
2 51131  53.2180  75.7939 0000701  87.4253 272.6819 15.08846211212027
STARLINK-3393           
1 51132U 22005AE  25323.05513021 -.00000398  00000+0 -68877-5 0  9995
2 51132  53.2161  75.7775 0001389  78.1698 281.9450 15.08835069212021
STARLINK-3356           
1 51133U 22005AF  25323.04409039  .00000574  00000+0  54170-4 0  9992
2 51133  53.2169  75.8280 0001205  88.5306 271.5824 15.08835611212023
STARLINK-3363           
1 51135U 22005AH  25322.76535393 -.00000161  00000+0  79968-5 0  9991
2 51135  53.2173  76.9753 0001378  76.6248 283.4898 15.08832921211989
STARLINK-3253           
1 51136U 22005AJ  25323.02198498 -.00001108  00000+0 -51541-4 0  9992
2 51136  53.2180  75.7229 0001348  91.8664 268.2483 15.08841417212028
STARLINK-3180           
1 51137U 22005AK  25323.02937591 -.00000022  00000+0  16698-4 0  9995
2 51137  53.2165  75.8937 0001235  89.2940 270.8194 15.08840775212037
